[
  {
    "COMMENT": "GENERATED VIA SPACETRACK.ORG API",
    "ORIGINATOR": "18 SPCS",
    "NORAD_CAT_ID": "39086",
    "OBJECT_NAME": "SARAL",
    "OBJECT_TYPE": "PAYLOAD",
    "CLASSIFICATION_TYPE": "U",
    "INTLDES": "13009A",
    "EPOCH": "2023-08-11 10:18:08",
    "EPOCH_MICROSECONDS": "901216",
    "MEAN_MOTION": "14.32244448",
    "ECCENTRICITY": "0.0002985",
    "INCLINATION": "98.5491",
    "RA_OF_ASC_NODE": "47.9167",
    "ARG_OF_PERICENTER": "109.5965",
    "MEAN_ANOMALY": "250.5541",
    "EPHEMERIS_TYPE": "0",
    "ELEMENT_SET_NO": "999",
    "REV_AT_EPOCH": "54659",
    "BSTAR": "0.000069495",
    "MEAN_MOTION_DOT": "0.00000144",
    "MEAN_MOTION_DDOT": "0",
    "FILE": "3977545",
    "TLE_LINE0": "0 SARAL",
    "TLE_LINE1": "1 39086U 13009A   23223.42926969  .00000144  00000-0  69495-4 0  9994",
    "TLE_LINE2": "2 39086  98.5491  47.9167 0002985 109.5965 250.5541 14.32244448546594",
    "OBJECT_ID": "2013-009A",
    "OBJECT_NUMBER": "39086",
    "SEMIMAJOR_AXIS": "7162.375",
    "PERIOD": "100.541",
    "APOGEE": "786.378",
    "PERIGEE": "782.102",
    "DECAYED": "0"
  },
  {
    "COMMENT": "GENERATED VIA SPACETRACK.ORG API",
    "ORIGINATOR": "18 SPCS",
    "NORAD_CAT_ID": "39086",
    "OBJECT_NAME": "SARAL",
    "OBJECT_TYPE": "PAYLOAD",
    "CLASSIFICATION_TYPE": "U",
    "INTLDES": "13009A",
    "EPOCH": "2023-08-12 11:27:08",
    "EPOCH_MICROSECONDS": "87616",
    "MEAN_MOTION": "14.32244898",
    "ECCENTRICITY": "0.0003005",
    "INCLINATION": "98.5491",
    "RA_OF_ASC_NODE": "48.9496",
    "ARG_OF_PERICENTER": "107.7763",
    "MEAN_ANOMALY": "252.3748",
    "EPHEMERIS_TYPE": "0",
    "ELEMENT_SET_NO": "999",
    "REV_AT_EPOCH": "54674",
    "BSTAR": "0.000070482",
    "MEAN_MOTION_DOT": "0.00000146",
    "MEAN_MOTION_DDOT": "0",
    "FILE": "3978368",
    "TLE_LINE0": "0 SARAL",
    "TLE_LINE1": "1 39086U 13009A   23224.47717694  .00000146  00000-0  70482-4 0  9993",
    "TLE_LINE2": "2 39086  98.5491  48.9496 0003005 107.7763 252.3748 14.32244898546745",
    "OBJECT_ID": "2013-009A",
    "OBJECT_NUMBER": "39086",
    "SEMIMAJOR_AXIS": "7162.374",
    "PERIOD": "100.541",
    "APOGEE": "786.391",
    "PERIGEE": "782.087",
    "DECAYED": "0"
  },
  {
    "COMMENT": "GENERATED VIA SPACETRACK.ORG API",
    "ORIGINATOR": "18 SPCS",
    "NORAD_CAT_ID": "39086",
    "OBJECT_NAME": "SARAL",
    "OBJECT_TYPE": "PAYLOAD",
    "CLASSIFICATION_TYPE": "U",
    "INTLDES": "13009A",
    "EPOCH": "2023-08-13 12:36:07",
    "EPOCH_MICROSECONDS": "237728",
    "MEAN_MOTION": "14.32245368",
    "ECCENTRICITY": "0.0003018",
    "INCLINATION": "98.5491",
    "RA_OF_ASC_NODE": "49.9824",
    "ARG_OF_PERICENTER": "105.9951",
    "MEAN_ANOMALY": "254.1566",
    "EPHEMERIS_TYPE": "0",
    "ELEMENT_SET_NO": "999",
    "REV_AT_EPOCH": "54689",
    "BSTAR": "0.000074583",
    "MEAN_MOTION_DOT": "0.00000157",
    "MEAN_MOTION_DDOT": "0",
    "FILE": "3979176",
    "TLE_LINE0": "0 SARAL",
    "TLE_LINE1": "1 39086U 13009A   23225.52508377  .00000157  00000-0  74583-4 0  9994",
    "TLE_LINE2": "2 39086  98.5491  49.9824 0003018 105.9951 254.1566 14.32245368546891",
    "OBJECT_ID": "2013-009A",
    "OBJECT_NUMBER": "39086",
    "SEMIMAJOR_AXIS": "7162.372",
    "PERIOD": "100.541",
    "APOGEE": "786.399",
    "PERIGEE": "782.076",
    "DECAYED": "0"
  },
  {
    "COMMENT": "GENERATED VIA SPACETRACK.ORG API",
    "ORIGINATOR": "18 SPCS",
    "NORAD_CAT_ID": "39086",
    "OBJECT_NAME": "SARAL",
    "OBJECT_TYPE": "PAYLOAD",
    "CLASSIFICATION_TYPE": "U",
    "INTLDES": "13009A",
    "EPOCH": "2023-08-14 18:46:54",
    "EPOCH_MICROSECONDS": "194880",
    "MEAN_MOTION": "14.32245821",
    "ECCENTRICITY": "0.0003042",
    "INCLINATION": "98.5491",
    "RA_OF_ASC_NODE": "51.2219",
    "ARG_OF_PERICENTER": "103.587",
    "MEAN_ANOMALY": "256.5653",
    "EPHEMERIS_TYPE": "0",
    "ELEMENT_SET_NO": "999",
    "REV_AT_EPOCH": "54707",
    "BSTAR": "0.000072926",
    "MEAN_MOTION_DOT": "0.00000153",
    "MEAN_MOTION_DDOT": "0",
    "FILE": "3980266",
    "TLE_LINE0": "0 SARAL",
    "TLE_LINE1": "1 39086U 13009A   23226.78257170  .00000153  00000-0  72926-4 0  9990",
    "TLE_LINE2": "2 39086  98.5491  51.2219 0003042 103.5870 256.5653 14.32245821547074",
    "OBJECT_ID": "2013-009A",
    "OBJECT_NUMBER": "39086",
    "SEMIMAJOR_AXIS": "7162.371",
    "PERIOD": "100.541",
    "APOGEE": "786.415",
    "PERIGEE": "782.057",
    "DECAYED": "0"
  },
  {
    "COMMENT": "GENERATED VIA SPACETRACK.ORG API",
    "ORIGINATOR": "18 SPCS",
    "NORAD_CAT_ID": "39086",
    "OBJECT_NAME": "SARAL",
    "OBJECT_TYPE": "PAYLOAD",
    "CLASSIFICATION_TYPE": "U",
    "INTLDES": "13009A",
    "EPOCH": "2023-08-16 00:57:41",
    "EPOCH_MICROSECONDS": "106240",
    "MEAN_MOTION": "14.32246358",
    "ECCENTRICITY": "0.000306",
    "INCLINATION": "98.5492",
    "RA_OF_ASC_NODE": "52.4614",
    "ARG_OF_PERICENTER": "101.2636",
    "MEAN_ANOMALY": "258.8892",
    "EPHEMERIS_TYPE": "0",
    "ELEMENT_SET_NO": "999",
    "REV_AT_EPOCH": "54725",
    "BSTAR": "0.000073632",
    "MEAN_MOTION_DOT": "0.00000155",
    "MEAN_MOTION_DDOT": "0",
    "FILE": "3981397",
    "TLE_LINE0": "0 SARAL",
    "TLE_LINE1": "1 39086U 13009A   23228.04005910  .00000155  00000-0  73632-4 0  9991",
    "TLE_LINE2": "2 39086  98.5492  52.4614 0003060 101.2636 258.8892 14.32246358547258",
    "OBJECT_ID": "2013-009A",
    "OBJECT_NUMBER": "39086",
    "SEMIMAJOR_AXIS": "7162.369",
    "PERIOD": "100.541",
    "APOGEE": "786.426",
    "PERIGEE": "782.042",
    "DECAYED": "0"
  },
  {
    "COMMENT": "GENERATED VIA SPACETRACK.ORG API",
    "ORIGINATOR": "18 SPCS",
    "NORAD_CAT_ID": "39086",
    "OBJECT_NAME": "SARAL",
    "OBJECT_TYPE": "PAYLOAD",
    "CLASSIFICATION_TYPE": "U",
    "INTLDES": "13009A",
    "EPOCH": "2023-08-17 02:06:40",
    "EPOCH_MICROSECONDS": "163040",
    "MEAN_MOTION": "14.32246772",
    "ECCENTRICITY": "0.000307",
    "INCLINATION": "98.5492",
    "RA_OF_ASC_NODE": "53.4943",
    "ARG_OF_PERICENTER": "99.3932",
    "MEAN_ANOMALY": "260.7599",
    "EPHEMERIS_TYPE": "0",
    "ELEMENT_SET_NO": "999",
    "REV_AT_EPOCH": "54740",
    "BSTAR": "0.000071079",
    "MEAN_MOTION_DOT": "0.00000148",
    "MEAN_MOTION_DDOT": "0",
    "FILE": "3982244",
    "TLE_LINE0": "0 SARAL",
    "TLE_LINE1": "1 39086U 13009A   23229.08796485  .00000148  00000-0  71079-4 0  9995",
    "TLE_LINE2": "2 39086  98.5492  53.4943 0003070  99.3932 260.7599 14.32246772547404",
    "OBJECT_ID": "2013-009A",
    "OBJECT_NUMBER": "39086",
    "SEMIMAJOR_AXIS": "7162.368",
    "PERIOD": "100.541",
    "APOGEE": "786.431",
    "PERIGEE": "782.034",
    "DECAYED": "0"
  },
  {
    "COMMENT": "GENERATED VIA SPACETRACK.ORG API",
    "ORIGINATOR": "18 SPCS",
    "NORAD_CAT_ID": "39086",
    "OBJECT_NAME": "SARAL",
    "OBJECT_TYPE": "PAYLOAD",
    "CLASSIFICATION_TYPE": "U",
    "INTLDES": "13009A",
    "EPOCH": "2023-08-18 03:15:39",
    "EPOCH_MICROSECONDS": "200832",
    "MEAN_MOTION": "14.32247155",
    "ECCENTRICITY": "0.0003082",
    "INCLINATION": "98.5493",
    "RA_OF_ASC_NODE": "54.5272",
    "ARG_OF_PERICENTER": "97.4013",
    "MEAN_ANOMALY": "262.7521",
    "EPHEMERIS_TYPE": "0",
    "ELEMENT_SET_NO": "999",
    "REV_AT_EPOCH": "54755",
    "BSTAR": "0.000070031",
    "MEAN_MOTION_DOT": "0.00000145",
    "MEAN_MOTION_DDOT": "0",
    "FILE": "3983118",
    "TLE_LINE0": "0 SARAL",
    "TLE_LINE1": "1 39086U 13009A   23230.13587038  .00000145  00000-0  70031-4 0  9999",
    "TLE_LINE2": "2 39086  98.5493  54.5272 0003082  97.4013 262.7521 14.32247155547553",
    "OBJECT_ID": "2013-009A",
    "OBJECT_NUMBER": "39086",
    "SEMIMAJOR_AXIS": "7162.366",
    "PERIOD": "100.541",
    "APOGEE": "786.439",
    "PERIGEE": "782.024",
    "DECAYED": "0"
  },
  {
    "COMMENT": "GENERATED VIA SPACETRACK.ORG API",
    "ORIGINATOR": "18 SPCS",
    "NORAD_CAT_ID": "39086",
    "OBJECT_NAME": "SARAL",
    "OBJECT_TYPE": "PAYLOAD",
    "CLASSIFICATION_TYPE": "U",
    "INTLDES": "13009A",
    "EPOCH": "2023-08-19 04:24:38",
    "EPOCH_MICROSECONDS": "206656",
    "MEAN_MOTION": "14.32247571",
    "ECCENTRICITY": "0.0003093",
    "INCLINATION": "98.5494",
    "RA_OF_ASC_NODE": "55.5601",
    "ARG_OF_PERICENTER": "95.4998",
    "MEAN_ANOMALY": "264.6539",
    "EPHEMERIS_TYPE": "0",
    "ELEMENT_SET_NO": "999",
    "REV_AT_EPOCH": "54770",
    "BSTAR": "0.000070725",
    "MEAN_MOTION_DOT": "0.00000147",
    "MEAN_MOTION_DDOT": "0",
    "FILE": "3984121",
    "TLE_LINE0": "0 SARAL",
    "TLE_LINE1": "1 39086U 13009A   23231.18377554  .00000147  00000-0  70725-4 0  9997",
    "TLE_LINE2": "2 39086  98.5494  55.5601 0003093  95.4998 264.6539 14.32247571547702",
    "OBJECT_ID": "2013-009A",
    "OBJECT_NUMBER": "39086",
    "SEMIMAJOR_AXIS": "7162.365",
    "PERIOD": "100.541",
    "APOGEE": "786.445",
    "PERIGEE": "782.015",
    "DECAYED": "0"
  },
  {
    "COMMENT": "GENERATED VIA SPACETRACK.ORG API",
    "ORIGINATOR": "18 SPCS",
    "NORAD_CAT_ID": "39086",
    "OBJECT_NAME": "SARAL",
    "OBJECT_TYPE": "PAYLOAD",
    "CLASSIFICATION_TYPE": "U",
    "INTLDES": "13009A",
    "EPOCH": "2023-08-20 12:16:00",
    "EPOCH_MICROSECONDS": "910560",
    "MEAN_MOTION": "14.32248049",
    "ECCENTRICITY": "0.0003088",
    "INCLINATION": "98.5495",
    "RA_OF_ASC_NODE": "56.8685",
    "ARG_OF_PERICENTER": "92.9933",
    "MEAN_ANOMALY": "267.1604",
    "EPHEMERIS_TYPE": "0",
    "ELEMENT_SET_NO": "999",
    "REV_AT_EPOCH": "54789",
    "BSTAR": "0.000065408",
    "MEAN_MOTION_DOT": "0.00000133",
    "MEAN_MOTION_DDOT": "0",
    "FILE": "3985196",
    "TLE_LINE0": "0 SARAL",
    "TLE_LINE1": "1 39086U 13009A   23232.51112165  .00000133  00000-0  65408-4 0  9997",
    "TLE_LINE2": "2 39086  98.5495  56.8685 0003088  92.9933 267.1604 14.32248049547896",
    "OBJECT_ID": "2013-009A",
    "OBJECT_NUMBER": "39086",
    "SEMIMAJOR_AXIS": "7162.363",
    "PERIOD": "100.541",
    "APOGEE": "786.440",
    "PERIGEE": "782.017",
    "DECAYED": "0"
  }
]